CCSDS_OMM_VERS = 2.0
CREATION_DATE  = 
ORIGINATOR     = 

OBJECT_NAME    = SL-4 R/B
OBJECT_ID      = 2014-021B
CENTER_NAME    = EARTH
REF_FRAME      = TEME
TIME_SYSTEM    = UTC
MEAN_ELEMENT_THEORY = SGP/SGP4

EPOCH          = 2026-01-02T13:16:06.112992
MEAN_MOTION    = 15.37224019
ECCENTRICITY   = .01001648
INCLINATION    = 51.6093
RA_OF_ASC_NODE = 299.4080
ARG_OF_PERICENTER = 221.4968
MEAN_ANOMALY   = 137.8379

EPHEMERIS_TYPE = 0
CLASSIFICATION_TYPE = U
NORAD_CAT_ID   = 39679
ELEMENT_SET_NO = 999
REV_AT_EPOCH   = 64609
BSTAR          = .42851887E-3
MEAN_MOTION_DOT = .18425E-3
MEAN_MOTION_DDOT = 0

CCSDS_OMM_VERS = 2.0
CREATION_DATE  = 
ORIGINATOR     = 

OBJECT_NAME    = ALOS-2
OBJECT_ID      = 2014-029A
CENTER_NAME    = EARTH
REF_FRAME      = TEME
TIME_SYSTEM    = UTC
MEAN_ELEMENT_THEORY = SGP/SGP4

EPOCH          = 2026-01-02T20:16:04.746432
MEAN_MOTION    = 14.79470555
ECCENTRICITY   = .0001337
INCLINATION    = 97.9221
RA_OF_ASC_NODE = 102.3904
ARG_OF_PERICENTER = 96.7784
MEAN_ANOMALY   = 263.3579

EPHEMERIS_TYPE = 0
CLASSIFICATION_TYPE = U
NORAD_CAT_ID   = 39766
ELEMENT_SET_NO = 999
REV_AT_EPOCH   = 62713
BSTAR          = .99905E-3
MEAN_MOTION_DOT = .7417E-4
MEAN_MOTION_DDOT = 0

CCSDS_OMM_VERS = 2.0
CREATION_DATE  = 
ORIGINATOR     = 

OBJECT_NAME    = YAOGAN-29
OBJECT_ID      = 2015-069A
CENTER_NAME    = EARTH
REF_FRAME      = TEME
TIME_SYSTEM    = UTC
MEAN_ELEMENT_THEORY = SGP/SGP4

EPOCH          = 2026-01-02T20:56:11.644800
MEAN_MOTION    = 14.82908156
ECCENTRICITY   = .0001508
INCLINATION    = 98.0205
RA_OF_ASC_NODE = 31.1106
ARG_OF_PERICENTER = 148.4235
MEAN_ANOMALY   = 211.7069

EPHEMERIS_TYPE = 0
CLASSIFICATION_TYPE = U
NORAD_CAT_ID   = 41038
ELEMENT_SET_NO = 999
REV_AT_EPOCH   = 54612
BSTAR          = .39634E-4
MEAN_MOTION_DOT = .267E-5
MEAN_MOTION_DDOT = 0

CCSDS_OMM_VERS = 2.0
CREATION_DATE  = 
ORIGINATOR     = 

OBJECT_NAME    = ASTRO-H (HITOMI)
OBJECT_ID      = 2016-012A
CENTER_NAME    = EARTH
REF_FRAME      = TEME
TIME_SYSTEM    = UTC
MEAN_ELEMENT_THEORY = SGP/SGP4

EPOCH          = 2026-01-02T12:29:35.068992
MEAN_MOTION    = 15.09515369
ECCENTRICITY   = .00095991
INCLINATION    = 31.0008
RA_OF_ASC_NODE = 63.3877
ARG_OF_PERICENTER = 27.6364
MEAN_ANOMALY   = 332.4783

EPHEMERIS_TYPE = 0
CLASSIFICATION_TYPE = U
NORAD_CAT_ID   = 41337
ELEMENT_SET_NO = 999
REV_AT_EPOCH   = 54222
BSTAR          = .34840691E-3
MEAN_MOTION_DOT = .5824E-4
MEAN_MOTION_DDOT = 0

CCSDS_OMM_VERS = 2.0
CREATION_DATE  = 
ORIGINATOR     = 

OBJECT_NAME    = HXMT (HUIYAN)
OBJECT_ID      = 2017-034A
CENTER_NAME    = EARTH
REF_FRAME      = TEME
TIME_SYSTEM    = UTC
MEAN_ELEMENT_THEORY = SGP/SGP4

EPOCH          = 2026-01-02T12:57:39.600288
MEAN_MOTION    = 15.16536228
ECCENTRICITY   = .00322492
INCLINATION    = 43.0156
RA_OF_ASC_NODE = 24.1826
ARG_OF_PERICENTER = 179.0039
MEAN_ANOMALY   = 181.0878

EPHEMERIS_TYPE = 0
CLASSIFICATION_TYPE = U
NORAD_CAT_ID   = 42758
ELEMENT_SET_NO = 999
REV_AT_EPOCH   = 47249
BSTAR          = .5195928E-3
MEAN_MOTION_DOT = .10228E-3
MEAN_MOTION_DDOT = 0

CCSDS_OMM_VERS = 2.0
CREATION_DATE  = 
ORIGINATOR     = 

OBJECT_NAME    = CZ-2C R/B
OBJECT_ID      = 2018-054D
CENTER_NAME    = EARTH
REF_FRAME      = TEME
TIME_SYSTEM    = UTC
MEAN_ELEMENT_THEORY = SGP/SGP4

EPOCH          = 2026-01-02T10:37:46.364736
MEAN_MOTION    = 15.79181139
ECCENTRICITY   = .00124509
INCLINATION    = 35.1338
RA_OF_ASC_NODE = 40.0224
ARG_OF_PERICENTER = 349.8056
MEAN_ANOMALY   = 10.2425

EPHEMERIS_TYPE = 0
CLASSIFICATION_TYPE = U
NORAD_CAT_ID   = 43521
ELEMENT_SET_NO = 999
REV_AT_EPOCH   = 41832
BSTAR          = .90664438E-3
MEAN_MOTION_DOT = .172949E-2
MEAN_MOTION_DDOT = 0

CCSDS_OMM_VERS = 2.0
CREATION_DATE  = 
ORIGINATOR     = 

OBJECT_NAME    = SAOCOM 1A
OBJECT_ID      = 2018-076A
CENTER_NAME    = EARTH
REF_FRAME      = TEME
TIME_SYSTEM    = UTC
MEAN_ELEMENT_THEORY = SGP/SGP4

EPOCH          = 2026-01-02T14:24:16.756416
MEAN_MOTION    = 14.82157569
ECCENTRICITY   = .00013299
INCLINATION    = 97.8843
RA_OF_ASC_NODE = 191.7182
ARG_OF_PERICENTER = 83.2580
MEAN_ANOMALY   = 276.8784

EPHEMERIS_TYPE = 0
CLASSIFICATION_TYPE = U
NORAD_CAT_ID   = 43641
ELEMENT_SET_NO = 999
REV_AT_EPOCH   = 39157
BSTAR          = -.21537327E-4
MEAN_MOTION_DOT = -.224E-5
MEAN_MOTION_DDOT = 0

CCSDS_OMM_VERS = 2.0
CREATION_DATE  = 
ORIGINATOR     = 

OBJECT_NAME    = H-2A R/B
OBJECT_ID      = 2018-084L
CENTER_NAME    = EARTH
REF_FRAME      = TEME
TIME_SYSTEM    = UTC
MEAN_ELEMENT_THEORY = SGP/SGP4

EPOCH          = 2026-01-02T20:09:42.981984
MEAN_MOTION    = 15.38300835
ECCENTRICITY   = .0026062
INCLINATION    = 98.8758
RA_OF_ASC_NODE = 206.3072
ARG_OF_PERICENTER = 252.2864
MEAN_ANOMALY   = 107.5531

EPHEMERIS_TYPE = 0
CLASSIFICATION_TYPE = U
NORAD_CAT_ID   = 43682
ELEMENT_SET_NO = 999
REV_AT_EPOCH   = 39564
BSTAR          = .85382E-3
MEAN_MOTION_DOT = .32598E-3
MEAN_MOTION_DDOT = 0

CCSDS_OMM_VERS = 2.0
CREATION_DATE  = 
ORIGINATOR     = 

OBJECT_NAME    = SAOCOM 1B
OBJECT_ID      = 2020-059A
CENTER_NAME    = EARTH
REF_FRAME      = TEME
TIME_SYSTEM    = UTC
MEAN_ELEMENT_THEORY = SGP/SGP4

EPOCH          = 2026-01-02T20:00:53.536608
MEAN_MOTION    = 14.82168326
ECCENTRICITY   = .0001471
INCLINATION    = 97.8840
RA_OF_ASC_NODE = 191.0483
ARG_OF_PERICENTER = 84.0051
MEAN_ANOMALY   = 276.1330

EPHEMERIS_TYPE = 0
CLASSIFICATION_TYPE = U
NORAD_CAT_ID   = 46265
ELEMENT_SET_NO = 999
REV_AT_EPOCH   = 28899
BSTAR          = .16944E-3
MEAN_MOTION_DOT = .1297E-4
MEAN_MOTION_DDOT = 0

CCSDS_OMM_VERS = 2.0
CREATION_DATE  = 
ORIGINATOR     = 

OBJECT_NAME    = CSS (TIANHE)
OBJECT_ID      = 2021-035A
CENTER_NAME    = EARTH
REF_FRAME      = TEME
TIME_SYSTEM    = UTC
MEAN_ELEMENT_THEORY = SGP/SGP4

EPOCH          = 2026-01-02T17:14:11.839776
MEAN_MOTION    = 15.60092745
ECCENTRICITY   = .0010311
INCLINATION    = 41.4660
RA_OF_ASC_NODE = 249.2667
ARG_OF_PERICENTER = 206.2606
MEAN_ANOMALY   = 153.7711

EPHEMERIS_TYPE = 0
CLASSIFICATION_TYPE = U
NORAD_CAT_ID   = 48274
ELEMENT_SET_NO = 999
REV_AT_EPOCH   = 26730
BSTAR          = .36461E-3
MEAN_MOTION_DOT = .30283E-3
MEAN_MOTION_DDOT = 0

CCSDS_OMM_VERS = 2.0
CREATION_DATE  = 
ORIGINATOR     = 

OBJECT_NAME    = COSMOS 2550
OBJECT_ID      = 2021-056A
CENTER_NAME    = EARTH
REF_FRAME      = TEME
TIME_SYSTEM    = UTC
MEAN_ELEMENT_THEORY = SGP/SGP4

EPOCH          = 2026-01-02T18:54:51.578208
MEAN_MOTION    = 15.33828757
ECCENTRICITY   = .000834
INCLINATION    = 67.1441
RA_OF_ASC_NODE = 240.2690
ARG_OF_PERICENTER = 269.2800
MEAN_ANOMALY   = 90.7399

EPHEMERIS_TYPE = 0
CLASSIFICATION_TYPE = U
NORAD_CAT_ID   = 48865
ELEMENT_SET_NO = 999
REV_AT_EPOCH   = 25335
BSTAR          = .77585E-6
MEAN_MOTION_DOT = -.166E-5
MEAN_MOTION_DDOT = 0

CCSDS_OMM_VERS = 2.0
CREATION_DATE  = 
ORIGINATOR     = 

OBJECT_NAME    = CZ-2C R/B
OBJECT_ID      = 2022-058K
CENTER_NAME    = EARTH
REF_FRAME      = TEME
TIME_SYSTEM    = UTC
MEAN_ELEMENT_THEORY = SGP/SGP4

EPOCH          = 2026-01-02T04:35:51.656640
MEAN_MOTION    = 15.49737381
ECCENTRICITY   = .00439
INCLINATION    = 50.1924
RA_OF_ASC_NODE = 299.1650
ARG_OF_PERICENTER = 282.3337
MEAN_ANOMALY   = 77.2719

EPHEMERIS_TYPE = 0
CLASSIFICATION_TYPE = U
NORAD_CAT_ID   = 52794
ELEMENT_SET_NO = 999
REV_AT_EPOCH   = 19980
BSTAR          = .69708E-3
MEAN_MOTION_DOT = .40777E-3
MEAN_MOTION_DDOT = 0

